{"type": "FeatureCollection", "features": [ {"type": "Feature", "properties": {"norad_id": 33799, "name": "COSMOS 2251 DEB", "group": "cosmos-2251-debris", "lat": 5.671227138976081, "lon": 69.22715432656982, "alt_km": 642.35602498764, "timestamp": "2025-12-19T22:41:52.788484+00:00", "meta": {"OBJECT_NAME": "COSMOS 2251 DEB", "OBJECT_ID": "1993-036AQ", "EPOCH": "2025-12-19T14:52:34.207104", "MEAN_MOTION": 14.79698147, "ECCENTRICITY": 0.0022784, "INCLINATION": 74.0325, "RA_OF_ASC_NODE": 68.2393, "ARG_OF_PERICENTER": 136.5216, "MEAN_ANOMALY": 294.3275, "EPHEMERIS_TYPE": 0, "CLASSIFICATION_TYPE": "U", "NORAD_CAT_ID": 33799, "ELEMENT_SET_NO": 999, "REV_AT_EPOCH": 88913, "BSTAR": 0.00074895, "MEAN_MOTION_DOT": 5.621e-05, "MEAN_MOTION_DDOT": 0}, "tle": {"line1": "1 33799U 93036AQ  25353.61984036  .00005621  00000+0  74895-3 0  9996", "line2": "2 33799  74.0325  68.2393 0022784 136.5216 294.3275 14.79698147889139"}}, "geometry": {"type": "Point", "coordinates": [69.22715432656982, 5.671227138976081]}}, {"type": "Feature", "properties": {"norad_id": 33805, "name": "COSMOS 2251 DEB", "group": "cosmos-2251-debris", "lat": -59.68287550952503, "lon": -91.6972327518883, "alt_km": 748.8605734358771, "timestamp": "2025-12-19T22:41:52.788494+00:00", "meta": {"OBJECT_NAME": "COSMOS 2251 DEB", "OBJECT_ID": "1993-036AW", "EPOCH": "2025-12-19T06:31:27.960960", "MEAN_MOTION": 14.57869443, "ECCENTRICITY": 0.0060002, "INCLINATION": 74.0311, "RA_OF_ASC_NODE": 298.9043, "ARG_OF_PERICENTER": 125.9938, "MEAN_ANOMALY": 234.6811, "EPHEMERIS_TYPE": 0, "CLASSIFICATION_TYPE": "U", "NORAD_CAT_ID": 33805, "ELEMENT_SET_NO": 999, "REV_AT_EPOCH": 89322, "BSTAR": 0.00016836, "MEAN_MOTION_DOT": 7.6e-06, "MEAN_MOTION_DDOT": 0}, "tle": {"line1": "1 33805U 93036AW  25353.27185140  .00000760  00000+0  16836-3 0  9995", "line2": "2 33805  74.0311 298.9043 0060002 125.9938 234.6811 14.57869443893227"}}, "geometry": {"type": "Point", "coordinates": [-91.6972327518883, -59.68287550952503]}}, {"type": "Feature", "properties": {"norad_id": 33811, "name": "COSMOS 2251 DEB", "group": "cosmos-2251-debris", "lat": -42.334062695917275, "lon": -87.61044656993253, "alt_km": 543.0511646067343, "timestamp": "2025-12-19T22:41:52.788505+00:00", "meta": {"OBJECT_NAME": "COSMOS 2251 DEB", "OBJECT_ID": "1993-036BC", "EPOCH": "2025-12-19T05:52:53.844096", "MEAN_MOTION": 15.0545077, "ECCENTRICITY": 0.0030997, "INCLINATION": 73.8374, "RA_OF_ASC_NODE": 289.1626, "ARG_OF_PERICENTER": 9.0271, "MEAN_ANOMALY": 110.9684, "EPHEMERIS_TYPE": 0, "CLASSIFICATION_TYPE": "U", "NORAD_CAT_ID": 33811, "ELEMENT_SET_NO": 999, "REV_AT_EPOCH": 90116, "BSTAR": 0.00077553, "MEAN_MOTION_DOT": 0.00011234, "MEAN_MOTION_DDOT": 0}, "tle": {"line1": "1 33811U 93036BC  25353.24506764  .00011234  00000+0  77553-3 0  9999", "line2": "2 33811  73.8374 289.1626 0030997   9.0271 110.9684 15.05450770901161"}}, "geometry": {"type": "Point", "coordinates": [-87.61044656993253, -42.334062695917275]}}, {"type": "Feature", "properties": {"norad_id": 33815, "name": "COSMOS 2251 DEB", "group": "cosmos-2251-debris", "lat": 16.3547003163852, "lon": 166.27232116642043, "alt_km": 506.49524915259553, "timestamp": "2025-12-19T22:41:52.788515+00:00", "meta": {"OBJECT_NAME": "COSMOS 2251 DEB", "OBJECT_ID": "1993-036BG", "EPOCH": "2025-12-18T22:02:32.918784", "MEAN_MOTION": 15.19619374, "ECCENTRICITY": 0.00014849, "INCLINATION": 73.9513, "RA_OF_ASC_NODE": 163.589, "ARG_OF_PERICENTER": 298.6947, "MEAN_ANOMALY": 220.3914, "EPHEMERIS_TYPE": 0, "CLASSIFICATION_TYPE": "U", "NORAD_CAT_ID": 33815, "ELEMENT_SET_NO": 999, "REV_AT_EPOCH": 88464, "BSTAR": 0.005145232, "MEAN_MOTION_DOT": 0.00111324, "MEAN_MOTION_DDOT": 0}, "tle": {"line1": "1 33815U 93036BG  25352.91843656  .00111324  00000+0  51452-2 0  9990", "line2": "2 33815  73.9513 163.5890 0001484 298.6947 220.3914 15.19619374884641"}}, "geometry": {"type": "Point", "coordinates": [166.27232116642043, 16.3547003163852]}}, {"type": "Feature", "properties": {"norad_id": 33816, "name": "COSMOS 2251 DEB", "group": "cosmos-2251-debris", "lat": -69.78638893681584, "lon": 41.495700067803014, "alt_km": 1158.2524379957795, "timestamp": "2025-12-19T22:41:52.788526+00:00", "meta": {"OBJECT_NAME": "COSMOS 2251 DEB", "OBJECT_ID": "1993-036BH", "EPOCH": "2025-12-19T16:08:15.886176", "MEAN_MOTION": 13.81790801, "ECCENTRICITY": 0.0264351, "INCLINATION": 73.8953, "RA_OF_ASC_NODE": 93.6459, "ARG_OF_PERICENTER": 105.2097, "MEAN_ANOMALY": 257.842, "EPHEMERIS_TYPE": 0, "CLASSIFICATION_TYPE": "U", "NORAD_CAT_ID": 33816, "ELEMENT_SET_NO": 999, "REV_AT_EPOCH": 84769, "BSTAR": 0.00025444, "MEAN_MOTION_DOT": 3.34e-06, "MEAN_MOTION_DDOT": 0}, "tle": {"line1": "1 33816U 93036BH  25353.67240609  .00000334  00000+0  25444-3 0  9995", "line2": "2 33816  73.8953  93.6459 0264351 105.2097 257.8420 13.81790801847699"}}, "geometry": {"type": "Point", "coordinates": [41.495700067803014, -69.78638893681584]}}, {"type": "Feature", "properties": {"norad_id": 33818, "name": "COSMOS 2251 DEB", "group": "cosmos-2251-debris", "lat": 69.17219237841454, "lon": -77.29054334225, "alt_km": 505.2103114010133, "timestamp": "2025-12-19T22:41:52.788537+00:00", "meta": {"OBJECT_NAME": "COSMOS 2251 DEB", "OBJECT_ID": "1993-036BK", "EPOCH": "2025-12-19T11:24:54.957312", "MEAN_MOTION": 15.13011438, "ECCENTRICITY": 0.0025461, "INCLINATION": 74.0767, "RA_OF_ASC_NODE": 152.3129, "ARG_OF_PERICENTER": 138.2658, "MEAN_ANOMALY": 285.9087, "EPHEMERIS_TYPE": 0, "CLASSIFICATION_TYPE": "U", "NORAD_CAT_ID": 33818, "ELEMENT_SET_NO": 999, "REV_AT_EPOCH": 89964, "BSTAR": 0.001748, "MEAN_MOTION_DOT": 0.00031214, "MEAN_MOTION_DDOT": 0}, "tle": {"line1": "1 33818U 93036BK  25353.47563608  .00031214  00000+0  17480-2 0  9993", "line2": "2 33818  74.0767 152.3129 0025461 138.2658 285.9087 15.13011438899642"}}, "geometry": {"type": "Point", "coordinates": [-77.29054334225, 69.17219237841454]}}, {"type": "Feature", "properties": {"norad_id": 33819, "name": "COSMOS 2251 DEB", "group": "cosmos-2251-debris", "lat": -57.15238440949718, "lon": 170.7570028362979, "alt_km": 819.3160422688397, "timestamp": "2025-12-19T22:41:52.788547+00:00", "meta": {"OBJECT_NAME": "COSMOS 2251 DEB", "OBJECT_ID": "1993-036BL", "EPOCH": "2025-12-19T13:01:17.324832", "MEAN_MOTION": 14.32244886, "ECCENTRICITY": 0.0089329, "INCLINATION": 74.1776, "RA_OF_ASC_NODE": 197.5404, "ARG_OF_PERICENTER": 56.817, "MEAN_ANOMALY": 325.2928, "EPHEMERIS_TYPE": 0, "CLASSIFICATION_TYPE": "U", "NORAD_CAT_ID": 33819, "ELEMENT_SET_NO": 999, "REV_AT_EPOCH": 87593, "BSTAR": 0.00043701, "MEAN_MOTION_DOT": 1.207e-05, "MEAN_MOTION_DDOT": 0}, "tle": {"line1": "1 33819U 93036BL  25353.54256163  .00001207  00000+0  43701-3 0  9992", "line2": "2 33819  74.1776 197.5404 0089329  56.8170 325.2928 14.32244886875931"}}, "geometry": {"type": "Point", "coordinates": [170.7570028362979, -57.15238440949718]}}, {"type": "Feature", "properties": {"norad_id": 33821, "name": "COSMOS 2251 DEB", "group": "cosmos-2251-debris", "lat": -53.36146055485699, "lon": -29.754368202412575, "alt_km": 487.62117000883245, "timestamp": "2025-12-19T22:41:52.788558+00:00", "meta": {"OBJECT_NAME": "COSMOS 2251 DEB", "OBJECT_ID": "1993-036BN", "EPOCH": "2025-12-19T15:22:23.382624", "MEAN_MOTION": 15.25721215, "ECCENTRICITY": 0.0050333, "INCLINATION": 74.0299, "RA_OF_ASC_NODE": 128.2428, "ARG_OF_PERICENTER": 159.6904, "MEAN_ANOMALY": 200.6314, "EPHEMERIS_TYPE": 0, "CLASSIFICATION_TYPE": "U", "NORAD_CAT_ID": 33821, "ELEMENT_SET_NO": 999, "REV_AT_EPOCH": 75106, "BSTAR": 0.00087428, "MEAN_MOTION_DOT": 0.00023154, "MEAN_MOTION_DDOT": 0}, "tle": {"line1": "1 33821U 93036BN  25353.64054841  .00023154  00000+0  87428-3 0  9994", "line2": "2 33821  74.0299 128.2428 0050333 159.6904 200.6314 15.25721215751061"}}, "geometry": {"type": "Point", "coordinates": [-29.754368202412575, -53.36146055485699]}}, {"type": "Feature", "properties": {"norad_id": 33822, "name": "COSMOS 2251 DEB", "group": "cosmos-2251-debris", "lat": -7.731244597362039, "lon": 178.73865084133905, "alt_km": 917.0627877373508, "timestamp": "2025-12-19T22:41:52.788568+00:00", "meta": {"OBJECT_NAME": "COSMOS 2251 DEB", "OBJECT_ID": "1993-036BP", "EPOCH": "2025-12-18T23:34:28.363008", "MEAN_MOTION": 14.13099087, "ECCENTRICITY": 0.01530225, "INCLINATION": 74.0677, "RA_OF_ASC_NODE": 182.6616, "ARG_OF_PERICENTER": 227.4613, "MEAN_ANOMALY": 263.7605, "EPHEMERIS_TYPE": 0, "CLASSIFICATION_TYPE": "U", "NORAD_CAT_ID": 33822, "ELEMENT_SET_NO": 999, "REV_AT_EPOCH": 86142, "BSTAR": 0.00099656309, "MEAN_MOTION_DOT": 2.056e-05, "MEAN_MOTION_DDOT": 0}, "tle": {"line1": "1 33822U 93036BP  25352.98227272  .00002056  00000+0  99656-3 0  9995", "line2": "2 33822  74.0677 182.6616 0153022 227.4613 263.7605 14.13099087861421"}}, "geometry": {"type": "Point", "coordinates": [178.73865084133905, -7.731244597362039]}}, {"type": "Feature", "properties": {"norad_id": 33823, "name": "COSMOS 2251 DEB", "group": "cosmos-2251-debris", "lat": 14.815151299804482, "lon": -47.706030924208655, "alt_km": 911.2379698019804, "timestamp": "2025-12-19T22:41:52.788578+00:00", "meta": {"OBJECT_NAME": "COSMOS 2251 DEB", "OBJECT_ID": "1993-036BQ", "EPOCH": "2025-12-19T16:49:31.221984", "MEAN_MOTION": 13.98966153, "ECCENTRICITY": 0.0209376, "INCLINATION": 73.8095, "RA_OF_ASC_NODE": 137.1298, "ARG_OF_PERICENTER": 261.1686, "MEAN_ANOMALY": 113.7949, "EPHEMERIS_TYPE": 0, "CLASSIFICATION_TYPE": "U", "NORAD_CAT_ID": 33823, "ELEMENT_SET_NO": 999, "REV_AT_EPOCH": 85707, "BSTAR": 0.00054669, "MEAN_MOTION_DOT": 9.26e-06, "MEAN_MOTION_DDOT": 0}, "tle": {"line1": "1 33823U 93036BQ  25353.70105581  .00000926  00000+0  54669-3 0  9994", "line2": "2 33823  73.8095 137.1298 0209376 261.1686 113.7949 13.98966153857073"}}, "geometry": {"type": "Point", "coordinates": [-47.706030924208655, 14.815151299804482]}}]}